{"fetched_at":"2026-07-08T07:03:36.533Z","source":"https://celestrak.org/NORAD/elements/gp.php?GROUP=planet&FORMAT=JSON","constellation":"skysat","records":[{"OBJECT_NAME":"SKYSAT-A","OBJECT_ID":"2013-066C","EPOCH":"2026-07-07T16:37:48.433152","CLASSIFICATION_TYPE":"U","MEAN_MOTION":15.13088169,"ECCENTRICITY":0.0019918,"INCLINATION":97.3803,"RA_OF_ASC_NODE":237.4366,"ARG_OF_PERICENTER":240.832,"MEAN_ANOMALY":119.0919,"EPHEMERIS_TYPE":0,"NORAD_CAT_ID":39418,"ELEMENT_SET_NO":999,"REV_AT_EPOCH":69158,"BSTAR":0.00013405,"MEAN_MOTION_DOT":0.00002318,"MEAN_MOTION_DDOT":0},{"OBJECT_NAME":"SKYSAT-B","OBJECT_ID":"2014-037D","EPOCH":"2026-07-07T18:26:49.276032","CLASSIFICATION_TYPE":"U","MEAN_MOTION":14.88080032,"ECCENTRICITY":0.0004951,"INCLINATION":98.3848,"RA_OF_ASC_NODE":148.9086,"ARG_OF_PERICENTER":197.6967,"MEAN_ANOMALY":162.4076,"EPHEMERIS_TYPE":0,"NORAD_CAT_ID":40072,"ELEMENT_SET_NO":999,"REV_AT_EPOCH":64902,"BSTAR":0.00012532,"MEAN_MOTION_DOT":0.00001091,"MEAN_MOTION_DDOT":0},{"OBJECT_NAME":"SKYSAT-C1","OBJECT_ID":"2016-040C","EPOCH":"2026-07-06T14:58:56.637696","CLASSIFICATION_TYPE":"U","MEAN_MOTION":15.36647042,"ECCENTRICITY":0.00012336,"INCLINATION":96.9556,"RA_OF_ASC_NODE":218.2931,"ARG_OF_PERICENTER":14.293,"MEAN_ANOMALY":345.835,"EPHEMERIS_TYPE":0,"NORAD_CAT_ID":41601,"ELEMENT_SET_NO":999,"REV_AT_EPOCH":56085,"BSTAR":0.00021640269,"MEAN_MOTION_DOT":0.00007669,"MEAN_MOTION_DDOT":0},{"OBJECT_NAME":"SKYSAT-C4","OBJECT_ID":"2016-058B","EPOCH":"2026-07-07T11:43:48.732672","CLASSIFICATION_TYPE":"U","MEAN_MOTION":15.4925468,"ECCENTRICITY":0.00031627,"INCLINATION":96.9169,"RA_OF_ASC_NODE":209.418,"ARG_OF_PERICENTER":130.0488,"MEAN_ANOMALY":230.1042,"EPHEMERIS_TYPE":0,"NORAD_CAT_ID":41771,"ELEMENT_SET_NO":999,"REV_AT_EPOCH":54861,"BSTAR":0.00022367371,"MEAN_MOTION_DOT":0.0001213,"MEAN_MOTION_DDOT":0},{"OBJECT_NAME":"SKYSAT-C5","OBJECT_ID":"2016-058C","EPOCH":"2026-07-06T22:14:09.710592","CLASSIFICATION_TYPE":"U","MEAN_MOTION":15.34766054,"ECCENTRICITY":0.0002457,"INCLINATION":97.0459,"RA_OF_ASC_NODE":227.6879,"ARG_OF_PERICENTER":176.3166,"MEAN_ANOMALY":183.8097,"EPHEMERIS_TYPE":0,"NORAD_CAT_ID":41772,"ELEMENT_SET_NO":999,"REV_AT_EPOCH":54677,"BSTAR":0.00018242404,"MEAN_MOTION_DOT":0.00006073,"MEAN_MOTION_DDOT":0},{"OBJECT_NAME":"SKYSAT-C2","OBJECT_ID":"2016-058D","EPOCH":"2026-07-06T14:15:23.124960","CLASSIFICATION_TYPE":"U","MEAN_MOTION":15.4253765,"ECCENTRICITY":0.00025596,"INCLINATION":97.0163,"RA_OF_ASC_NODE":208.9626,"ARG_OF_PERICENTER":24.307,"MEAN_ANOMALY":335.8299,"EPHEMERIS_TYPE":0,"NORAD_CAT_ID":41773,"ELEMENT_SET_NO":999,"REV_AT_EPOCH":54804,"BSTAR":0.00024349585,"MEAN_MOTION_DOT":0.00010488,"MEAN_MOTION_DDOT":0},{"OBJECT_NAME":"SKYSAT-C3","OBJECT_ID":"2016-058E","EPOCH":"2026-07-07T10:34:27.409728","CLASSIFICATION_TYPE":"U","MEAN_MOTION":15.53450138,"ECCENTRICITY":0.00020012,"INCLINATION":96.9001,"RA_OF_ASC_NODE":218.5177,"ARG_OF_PERICENTER":135.7039,"MEAN_ANOMALY":224.4376,"EPHEMERIS_TYPE":0,"NORAD_CAT_ID":41774,"ELEMENT_SET_NO":999,"REV_AT_EPOCH":54925,"BSTAR":0.00027706479,"MEAN_MOTION_DOT":0.00017481,"MEAN_MOTION_DDOT":0},{"OBJECT_NAME":"SKYSAT-C11","OBJECT_ID":"2017-068A","EPOCH":"2026-07-06T23:06:10.068192","CLASSIFICATION_TYPE":"U","MEAN_MOTION":15.58985087,"ECCENTRICITY":0.00006522,"INCLINATION":97.4374,"RA_OF_ASC_NODE":337.6719,"ARG_OF_PERICENTER":158.6283,"MEAN_ANOMALY":201.5,"EPHEMERIS_TYPE":0,"NORAD_CAT_ID":42987,"ELEMENT_SET_NO":999,"REV_AT_EPOCH":48632,"BSTAR":0.00030509951,"MEAN_MOTION_DOT":0.00023637,"MEAN_MOTION_DDOT":0},{"OBJECT_NAME":"SKYSAT-C10","OBJECT_ID":"2017-068B","EPOCH":"2026-07-06T22:00:01.586592","CLASSIFICATION_TYPE":"U","MEAN_MOTION":15.35000808,"ECCENTRICITY":0.00012861,"INCLINATION":97.4529,"RA_OF_ASC_NODE":324.963,"ARG_OF_PERICENTER":108.8962,"MEAN_ANOMALY":251.2421,"EPHEMERIS_TYPE":0,"NORAD_CAT_ID":42988,"ELEMENT_SET_NO":999,"REV_AT_EPOCH":48538,"BSTAR":0.00025039043,"MEAN_MOTION_DOT":0.00008421,"MEAN_MOTION_DDOT":0},{"OBJECT_NAME":"SKYSAT-C9","OBJECT_ID":"2017-068C","EPOCH":"2026-07-07T14:49:45.147360","CLASSIFICATION_TYPE":"U","MEAN_MOTION":15.42083508,"ECCENTRICITY":0.0009184,"INCLINATION":97.4447,"RA_OF_ASC_NODE":326.8037,"ARG_OF_PERICENTER":69.0692,"MEAN_ANOMALY":291.1537,"EPHEMERIS_TYPE":0,"NORAD_CAT_ID":42989,"ELEMENT_SET_NO":999,"REV_AT_EPOCH":48590,"BSTAR":0.00020917,"MEAN_MOTION_DOT":0.00008865,"MEAN_MOTION_DDOT":0},{"OBJECT_NAME":"SKYSAT-C8","OBJECT_ID":"2017-068D","EPOCH":"2026-07-06T22:08:53.760480","CLASSIFICATION_TYPE":"U","MEAN_MOTION":15.37378325,"ECCENTRICITY":0.00011896,"INCLINATION":97.4547,"RA_OF_ASC_NODE":324.8452,"ARG_OF_PERICENTER":97.221,"MEAN_ANOMALY":262.917,"EPHEMERIS_TYPE":0,"NORAD_CAT_ID":42990,"ELEMENT_SET_NO":999,"REV_AT_EPOCH":48534,"BSTAR":0.00022873875,"MEAN_MOTION_DOT":0.00008297,"MEAN_MOTION_DDOT":0},{"OBJECT_NAME":"SKYSAT-C7","OBJECT_ID":"2017-068E","EPOCH":"2026-07-07T04:15:30.088512","CLASSIFICATION_TYPE":"U","MEAN_MOTION":15.37334035,"ECCENTRICITY":0.00064145,"INCLINATION":97.4556,"RA_OF_ASC_NODE":326.0941,"ARG_OF_PERICENTER":47.3462,"MEAN_ANOMALY":312.8322,"EPHEMERIS_TYPE":0,"NORAD_CAT_ID":42991,"ELEMENT_SET_NO":999,"REV_AT_EPOCH":48544,"BSTAR":0.00020626111,"MEAN_MOTION_DOT":0.00007466,"MEAN_MOTION_DDOT":0},{"OBJECT_NAME":"SKYSAT-C6","OBJECT_ID":"2017-068F","EPOCH":"2026-07-06T21:49:25.668768","CLASSIFICATION_TYPE":"U","MEAN_MOTION":15.34062756,"ECCENTRICITY":0.00053637,"INCLINATION":97.4672,"RA_OF_ASC_NODE":325.7029,"ARG_OF_PERICENTER":104.5619,"MEAN_ANOMALY":255.6218,"EPHEMERIS_TYPE":0,"NORAD_CAT_ID":42992,"ELEMENT_SET_NO":999,"REV_AT_EPOCH":48534,"BSTAR":0.00020625961,"MEAN_MOTION_DOT":0.00006719,"MEAN_MOTION_DDOT":0},{"OBJECT_NAME":"SKYSAT-C12","OBJECT_ID":"2018-099AR","EPOCH":"2026-07-06T20:37:48.497376","CLASSIFICATION_TYPE":"U","MEAN_MOTION":15.49578889,"ECCENTRICITY":0.00058857,"INCLINATION":96.9257,"RA_OF_ASC_NODE":210.312,"ARG_OF_PERICENTER":89.2485,"MEAN_ANOMALY":270.9442,"EPHEMERIS_TYPE":0,"NORAD_CAT_ID":43797,"ELEMENT_SET_NO":999,"REV_AT_EPOCH":42490,"BSTAR":0.00026104662,"MEAN_MOTION_DOT":0.00014343,"MEAN_MOTION_DDOT":0}]}
